{
  "type": "FeatureCollection",
  "features": [
    {
      "type": "Feature",
      "properties": {
        "norad_id": 30416,
        "name": "FENGYUN 1C DEB",
        "group": "fengyun-1c-debris",
        "lat": 0.5148992021791803,
        "lon": 9.254051601121406,
        "alt_km": 926.4954404092641,
        "timestamp": "2025-12-10T20:49:52.829810+00:00",
        "meta_object_name": "FENGYUN 1C DEB",
        "meta_object_id": "1999-025AEF",
        "meta_epoch": "2025-12-10T12:16:07.248864",
        "meta_mean_motion": 14.02626071,
        "meta_eccentricity": 0.00553965,
        "meta_inclination": 98.8349,
        "meta_ra_of_asc_node": 8.9881,
        "meta_arg_of_pericenter": 196.0343,
        "meta_mean_anomaly": 163.9072,
        "meta_ephemeris_type": 0,
        "meta_classification_type": "U",
        "meta_norad_cat_id": 30416,
        "meta_element_set_no": 999,
        "meta_rev_at_epoch": 96593,
        "meta_bstar": 0.00048545502,
        "meta_mean_motion_dot": 7.16e-06,
        "meta_mean_motion_ddot": 0,
        "tle_line1": "1 30416U 99025AEF 25344.51119501  .00000716  00000+0  48546-3 0  9993",
        "tle_line2": "2 30416  98.8349   8.9881 0055396 196.0343 163.9072 14.02626071965934"
      },
      "geometry": {
        "type": "Point",
        "coordinates": [
          9.254051601121406,
          0.5148992021791803
        ]
      }
    },
    {
      "type": "Feature",
      "properties": {
        "norad_id": 30417,
        "name": "FENGYUN 1C DEB",
        "group": "fengyun-1c-debris",
        "lat": 42.3153135841513,
        "lon": 162.9074198368145,
        "alt_km": 794.4176874102986,
        "timestamp": "2025-12-10T20:49:52.829820+00:00",
        "meta_object_name": "FENGYUN 1C DEB",
        "meta_object_id": "1999-025AEG",
        "meta_epoch": "2025-12-10T10:43:24.051360",
        "meta_mean_motion": 14.14659191,
        "meta_eccentricity": 0.00643784,
        "meta_inclination": 98.6929,
        "meta_ra_of_asc_node": 334.4908,
        "meta_arg_of_pericenter": 126.4803,
        "meta_mean_anomaly": 26.6628,
        "meta_ephemeris_type": 0,
        "meta_classification_type": "U",
        "meta_norad_cat_id": 30417,
        "meta_element_set_no": 999,
        "meta_rev_at_epoch": 97356,
        "meta_bstar": 0.00038935406,
        "meta_mean_motion_dot": 7.22e-06,
        "meta_mean_motion_ddot": 0,
        "tle_line1": "1 30417U 99025AEG 25344.44680615  .00000722  00000+0  38935-3 0  9993",
        "tle_line2": "2 30417  98.6929 334.4908 0064378 126.4803  26.6628 14.14659191973564"
      },
      "geometry": {
        "type": "Point",
        "coordinates": [
          162.9074198368145,
          42.3153135841513
        ]
      }
    },
    {
      "type": "Feature",
      "properties": {
        "norad_id": 30418,
        "name": "FENGYUN 1C DEB",
        "group": "fengyun-1c-debris",
        "lat": 10.80736155060061,
        "lon": -33.84777273946228,
        "alt_km": 564.6117566095581,
        "timestamp": "2025-12-10T20:49:52.829831+00:00",
        "meta_object_name": "FENGYUN 1C DEB",
        "meta_object_id": "1999-025AEH",
        "meta_epoch": "2025-12-10T04:41:05.095104",
        "meta_mean_motion": 14.84133543,
        "meta_eccentricity": 0.01112386,
        "meta_inclination": 98.841,
        "meta_ra_of_asc_node": 143.7046,
        "meta_arg_of_pericenter": 123.678,
        "meta_mean_anomaly": 51.898,
        "meta_ephemeris_type": 0,
        "meta_classification_type": "U",
        "meta_norad_cat_id": 30418,
        "meta_element_set_no": 999,
        "meta_rev_at_epoch": 554,
        "meta_bstar": 0.0013372361,
        "meta_mean_motion_dot": 0.00012416,
        "meta_mean_motion_ddot": 0,
        "tle_line1": "1 30418U 99025AEH 25344.19519786  .00012416  00000+0  13372-2 0  9996",
        "tle_line2": "2 30418  98.8410 143.7046 0111238 123.6780  51.8980 14.84133543  5547"
      },
      "geometry": {
        "type": "Point",
        "coordinates": [
          -33.84777273946228,
          10.80736155060061
        ]
      }
    },
    {
      "type": "Feature",
      "properties": {
        "norad_id": 30419,
        "name": "FENGYUN 1C DEB",
        "group": "fengyun-1c-debris",
        "lat": -3.70277810233324,
        "lon": -67.81524888933458,
        "alt_km": 803.4929776104191,
        "timestamp": "2025-12-10T20:49:52.829840+00:00",
        "meta_object_name": "FENGYUN 1C DEB",
        "meta_object_id": "1999-025AEJ",
        "meta_epoch": "2025-12-10T08:01:13.101888",
        "meta_mean_motion": 14.18026256,
        "meta_eccentricity": 0.0053065,
        "meta_inclination": 99.2402,
        "meta_ra_of_asc_node": 291.0259,
        "meta_arg_of_pericenter": 31.5768,
        "meta_mean_anomaly": 121.6738,
        "meta_ephemeris_type": 0,
        "meta_classification_type": "U",
        "meta_norad_cat_id": 30419,
        "meta_element_set_no": 999,
        "meta_rev_at_epoch": 97314,
        "meta_bstar": 0.0012402,
        "meta_mean_motion_dot": 2.529e-05,
        "meta_mean_motion_ddot": 0,
        "tle_line1": "1 30419U 99025AEJ 25344.33417942  .00002529  00000+0  12402-2 0  9991",
        "tle_line2": "2 30419  99.2402 291.0259 0053065  31.5768 121.6738 14.18026256973149"
      },
      "geometry": {
        "type": "Point",
        "coordinates": [
          -67.81524888933458,
          -3.70277810233324
        ]
      }
    },
    {
      "type": "Feature",
      "properties": {
        "norad_id": 30432,
        "name": "FENGYUN 1C DEB",
        "group": "fengyun-1c-debris",
        "lat": -16.313838102310076,
        "lon": 61.06837247262327,
        "alt_km": 811.3523533939297,
        "timestamp": "2025-12-10T20:49:52.829850+00:00",
        "meta_object_name": "FENGYUN 1C DEB",
        "meta_object_id": "1999-025AET",
        "meta_epoch": "2025-12-10T11:35:05.421696",
        "meta_mean_motion": 14.40662851,
        "meta_eccentricity": 0.00831725,
        "meta_inclination": 98.8348,
        "meta_ra_of_asc_node": 243.2797,
        "meta_arg_of_pericenter": 345.6582,
        "meta_mean_anomaly": 14.2245,
        "meta_ephemeris_type": 0,
        "meta_classification_type": "U",
        "meta_norad_cat_id": 30432,
        "meta_element_set_no": 999,
        "meta_rev_at_epoch": 98702,
        "meta_bstar": 0.0011847391,
        "meta_mean_motion_dot": 3.892e-05,
        "meta_mean_motion_ddot": 0,
        "tle_line1": "1 30432U 99025AET 25344.48270164  .00003892  00000+0  11847-2 0  9991",
        "tle_line2": "2 30432  98.8348 243.2797 0083172 345.6582  14.2245 14.40662851987023"
      },
      "geometry": {
        "type": "Point",
        "coordinates": [
          61.06837247262327,
          -16.313838102310076
        ]
      }
    },
    {
      "type": "Feature",
      "properties": {
        "norad_id": 30434,
        "name": "FENGYUN 1C DEB",
        "group": "fengyun-1c-debris",
        "lat": -33.52464147390693,
        "lon": -22.230205883378268,
        "alt_km": 930.9919413739854,
        "timestamp": "2025-12-10T20:49:52.829861+00:00",
        "meta_object_name": "FENGYUN 1C DEB",
        "meta_object_id": "1999-025AEV",
        "meta_epoch": "2025-12-10T11:22:16.932576",
        "meta_mean_motion": 13.90647911,
        "meta_eccentricity": 0.01207823,
        "meta_inclination": 98.9988,
        "meta_ra_of_asc_node": 331.362,
        "meta_arg_of_pericenter": 237.4216,
        "meta_mean_anomaly": 275.0449,
        "meta_ephemeris_type": 0,
        "meta_classification_type": "U",
        "meta_norad_cat_id": 30434,
        "meta_element_set_no": 999,
        "meta_rev_at_epoch": 95675,
        "meta_bstar": 0.00047001157,
        "meta_mean_motion_dot": 5.78e-06,
        "meta_mean_motion_ddot": 0,
        "tle_line1": "1 30434U 99025AEV 25344.47380709  .00000578  00000+0  47001-3 0  9999",
        "tle_line2": "2 30434  98.9988 331.3620 0120782 237.4216 275.0449 13.90647911956754"
      },
      "geometry": {
        "type": "Point",
        "coordinates": [
          -22.230205883378268,
          -33.52464147390693
        ]
      }
    },
    {
      "type": "Feature",
      "properties": {
        "norad_id": 30435,
        "name": "FENGYUN 1C DEB",
        "group": "fengyun-1c-debris",
        "lat": 65.86819868818284,
        "lon": -49.5352230000128,
        "alt_km": 857.9519166189448,
        "timestamp": "2025-12-10T20:49:52.829870+00:00",
        "meta_object_name": "FENGYUN 1C DEB",
        "meta_object_id": "1999-025AEW",
        "meta_epoch": "2025-12-10T05:26:55.460256",
        "meta_mean_motion": 13.79606007,
        "meta_eccentricity": 0.0207461,
        "meta_inclination": 99.0172,
        "meta_ra_of_asc_node": 330.6137,
        "meta_arg_of_pericenter": 118.7311,
        "meta_mean_anomaly": 9.0399,
        "meta_ephemeris_type": 0,
        "meta_classification_type": "U",
        "meta_norad_cat_id": 30435,
        "meta_element_set_no": 999,
        "meta_rev_at_epoch": 94125,
        "meta_bstar": 0.0020675,
        "meta_mean_motion_dot": 2.467e-05,
        "meta_mean_motion_ddot": 0,
        "tle_line1": "1 30435U 99025AEW 25344.22703079  .00002467  00000+0  20675-2 0  9998",
        "tle_line2": "2 30435  99.0172 330.6137 0207461 118.7311   9.0399 13.79606007941250"
      },
      "geometry": {
        "type": "Point",
        "coordinates": [
          -49.5352230000128,
          65.86819868818284
        ]
      }
    }
  ]
}